{
  "type": "FeatureCollection",
  "features": [
    {
      "type": "Feature",
      "properties": {
        "id": "art-1",
        "base": 0,
        "height": 12,
        "color": "#d8c5a7",
        "part": "museum stone body",
        "source": "photo-inspired procedural illustration",
        "survey_verified": false,
        "usage": "visual_only"
      },
      "geometry": {
        "type": "Polygon",
        "coordinates": [
          [
            [
              128.0621433,
              36.6540683
            ],
            [
              128.0620728,
              36.6540466
            ],
            [
              128.0620151,
              36.6540075
            ],
            [
              128.0619768,
              36.6539552
            ],
            [
              128.0619623,
              36.6538957
            ],
            [
              128.0619731,
              36.6538358
            ],
            [
              128.062008,
              36.653782
            ],
            [
              128.0620632,
              36.6537406
            ],
            [
              128.0621323,
              36.6537161
            ],
            [
              128.0622076,
              36.6537114
            ],
            [
              128.0622806,
              36.6537269
            ],
            [
              128.0623409,
              36.6537593
            ],
            [
              128.0623852,
              36.6538052
            ],
            [
              128.062409,
              36.6538602
            ],
            [
              128.0624098,
              36.6539183
            ],
            [
              128.0623875,
              36.6539736
            ],
            [
              128.0623445,
              36.6540204
            ],
            [
              128.0622852,
              36.6540538
            ],
            [
              128.0622157,
              36.6540703
            ],
            [
              128.0621433,
              36.6540683
            ]
          ]
        ]
      }
    },
    {
      "type": "Feature",
      "properties": {
        "id": "art-2",
        "base": 10.5,
        "height": 12,
        "color": "#97b8b4",
        "part": "museum upper glazing",
        "source": "photo-inspired procedural illustration",
        "survey_verified": false,
        "usage": "visual_only"
      },
      "geometry": {
        "type": "Polygon",
        "coordinates": [
          [
            [
              128.0621428314737,
              36.65407006342105
            ],
            [
              128.06207162647368,
              36.654048146421054
            ],
            [
              128.0620133494737,
              36.65400865542105
            ],
            [
              128.06197466647367,
              36.653955832421055
            ],
            [
              128.06196002147368,
              36.65389573742105
            ],
            [
              128.06197092947366,
              36.65383523842105
            ],
            [
              128.06200617847367,
              36.653780900421054
            ],
            [
              128.0620619304737,
              36.653739086421055
            ],
            [
              128.0621317214737,
              36.65371434142105
            ],
            [
              128.06220777447368,
              36.65370959442105
            ],
            [
              128.0622815044737,
              36.65372524942106
            ],
            [
              128.0623424074737,
              36.65375797342105
            ],
            [
              128.06238715047368,
              36.65380433242105
            ],
            [
              128.06241118847367,
              36.65385988242105
            ],
            [
              128.06241199647368,
              36.65391856342105
            ],
            [
              128.06238947347367,
              36.65397441642105
            ],
            [
              128.06234604347367,
              36.65402168442105
            ],
            [
              128.06228615047368,
              36.65405541842105
            ],
            [
              128.06221595547368,
              36.654072083421056
            ],
            [
              128.0621428314737,
              36.65407006342105
            ]
          ]
        ]
      }
    },
    {
      "type": "Feature",
      "properties": {
        "id": "art-3",
        "base": 12,
        "height": 12.8,
        "color": "#f5f3df",
        "part": "museum overhanging roof",
        "source": "photo-inspired procedural illustration",
        "survey_verified": false,
        "usage": "visual_only"
      },
      "geometry": {
        "type": "Polygon",
        "coordinates": [
          [
            [
              128.06213861473685,
              36.65408593421053
            ],
            [
              128.06206106473684,
              36.65406206421053
            ],
            [
              128.06199759473682,
              36.65401905421052
            ],
            [
              128.06195546473683,
              36.65396152421052
            ],
            [
              128.06193951473685,
              36.65389607421053
            ],
            [
              128.06195139473684,
              36.65383018421053
            ],
            [
              128.06198978473682,
              36.653771004210526
            ],
            [
              128.06205050473685,
              36.653725464210524
            ],
            [
              128.06212651473683,
              36.653698514210525
            ],
            [
              128.06220934473683,
              36.653693344210524
            ],
            [
              128.06228964473686,
              36.65371039421053
            ],
            [
              128.06235597473685,
              36.65374603421052
            ],
            [
              128.06240470473685,
              36.65379652421053
            ],
            [
              128.06243088473684,
              36.653857024210524
            ],
            [
              128.06243176473686,
              36.653920934210525
            ],
            [
              128.06240723473684,
              36.65398176421053
            ],
            [
              128.06235993473683,
              36.654033244210524
            ],
            [
              128.06229470473684,
              36.65406998421053
            ],
            [
              128.06221825473685,
              36.654088134210525
            ],
            [
              128.06213861473685,
              36.65408593421053
            ]
          ]
        ]
      }
    },
    {
      "type": "Feature",
      "properties": {
        "id": "art-4",
        "base": 12.8,
        "height": 13,
        "color": "#dfe6cd",
        "part": "museum roof",
        "source": "photo-inspired procedural illustration",
        "survey_verified": false,
        "usage": "visual_only"
      },
      "geometry": {
        "type": "Polygon",
        "coordinates": [
          [
            [
              128.0621489223158,
              36.65404713894737
            ],
            [
              128.0620868823158,
              36.65402804294737
            ],
            [
              128.0620361063158,
              36.65399363494737
            ],
            [
              128.06200240231578,
              36.65394761094737
            ],
            [
              128.0619896423158,
              36.653895250947365
            ],
            [
              128.06199914631577,
              36.65384253894737
            ],
            [
              128.06202985831578,
              36.65379519494737
            ],
            [
              128.0620784343158,
              36.65375876294737
            ],
            [
              128.0621392423158,
              36.65373720294737
            ],
            [
              128.0622055063158,
              36.65373306694737
            ],
            [
              128.0622697463158,
              36.65374670694737
            ],
            [
              128.0623228103158,
              36.65377521894737
            ],
            [
              128.0623617943158,
              36.65381561094737
            ],
            [
              128.0623827383158,
              36.653864010947366
            ],
            [
              128.0623834423158,
              36.65391513894737
            ],
            [
              128.0623638183158,
              36.653963802947366
            ],
            [
              128.06232597831578,
              36.65400498694737
            ],
            [
              128.0622737943158,
              36.654034378947365
            ],
            [
              128.06221263431578,
              36.654048898947366
            ],
            [
              128.0621489223158,
              36.65404713894737
            ]
          ]
        ]
      }
    },
    {
      "type": "Feature",
      "properties": {
        "id": "art-5",
        "base": 0,
        "height": 8,
        "color": "#d7dfce",
        "part": "eco walls",
        "source": "photo-inspired procedural illustration",
        "survey_verified": false,
        "usage": "visual_only"
      },
      "geometry": {
        "type": "Polygon",
        "coordinates": [
          [
            [
              128.0597091,
              36.6544765
            ],
            [
              128.0600618,
              36.6541774
            ],
            [
              128.0598392,
              36.6539396
            ],
            [
              128.0594985,
              36.6543323
            ],
            [
              128.0597091,
              36.6544765
            ]
          ]
        ]
      }
    },
    {
      "type": "Feature",
      "properties": {
        "id": "art-6",
        "base": 7.3,
        "height": 8.2,
        "color": "#f7f2de",
        "part": "eco roof edge",
        "source": "photo-inspired procedural illustration",
        "survey_verified": false,
        "usage": "visual_only"
      },
      "geometry": {
        "type": "Polygon",
        "coordinates": [
          [
            [
              128.05970807925,
              36.65448017575
            ],
            [
              128.06006606975,
              36.65417658925
            ],
            [
              128.05984013075,
              36.65393522225
            ],
            [
              128.05949432025,
              36.654333812750004
            ],
            [
              128.05970807925,
              36.65448017575
            ]
          ]
        ]
      }
    },
    {
      "type": "Feature",
      "properties": {
        "id": "art-7",
        "base": 8.2,
        "height": 8.45,
        "color": "#83a857",
        "part": "eco roof",
        "source": "photo-inspired procedural illustration",
        "survey_verified": false,
        "usage": "visual_only"
      },
      "geometry": {
        "type": "Polygon",
        "coordinates": [
          [
            [
              128.05972339049998,
              36.6544250395
            ],
            [
              128.0600020235,
              36.6541887505
            ],
            [
              128.0598261695,
              36.6540008885
            ],
            [
              128.05955701649998,
              36.6543111215
            ],
            [
              128.05972339049998,
              36.6544250395
            ]
          ]
        ]
      }
    },
    {
      "type": "Feature",
      "properties": {
        "id": "art-8",
        "base": 0,
        "height": 8,
        "color": "#d7dfce",
        "part": "eco walls",
        "source": "photo-inspired procedural illustration",
        "survey_verified": false,
        "usage": "visual_only"
      },
      "geometry": {
        "type": "Polygon",
        "coordinates": [
          [
            [
              128.0589688,
              36.6547799
            ],
            [
              128.0593698,
              36.6546841
            ],
            [
              128.0593054,
              36.6545174
            ],
            [
              128.0589969,
              36.6545723
            ],
            [
              128.0589688,
              36.6547799
            ]
          ]
        ]
      }
    },
    {
      "type": "Feature",
      "properties": {
        "id": "art-9",
        "base": 7.3,
        "height": 8.2,
        "color": "#f7f2de",
        "part": "eco roof edge",
        "source": "photo-inspired procedural illustration",
        "survey_verified": false,
        "usage": "visual_only"
      },
      "geometry": {
        "type": "Polygon",
        "coordinates": [
          [
            [
              128.058965928625,
              36.654782022125
            ],
            [
              128.05937294362502,
              36.654684785125
            ],
            [
              128.059307577625,
              36.654515584625
            ],
            [
              128.058994450125,
              36.654571308125
            ],
            [
              128.058965928625,
              36.654782022125
            ]
          ]
        ]
      }
    },
    {
      "type": "Feature",
      "properties": {
        "id": "art-10",
        "base": 8.2,
        "height": 8.45,
        "color": "#83a857",
        "part": "eco roof",
        "source": "photo-inspired procedural illustration",
        "survey_verified": false,
        "usage": "visual_only"
      },
      "geometry": {
        "type": "Polygon",
        "coordinates": [
          [
            [
              128.05900899925,
              36.65475019025
            ],
            [
              128.05932578925,
              36.65467450825
            ],
            [
              128.05927491325,
              36.654542815250004
            ],
            [
              128.05903119825,
              36.65458618625
            ],
            [
              128.05900899925,
              36.65475019025
            ]
          ]
        ]
      }
    },
    {
      "type": "Feature",
      "properties": {
        "id": "art-11",
        "base": 0,
        "height": 8,
        "color": "#d7dfce",
        "part": "eco walls",
        "source": "photo-inspired procedural illustration",
        "survey_verified": false,
        "usage": "visual_only"
      },
      "geometry": {
        "type": "Polygon",
        "coordinates": [
          [
            [
              128.0600524,
              36.6547928
            ],
            [
              128.060165,
              36.6547691
            ],
            [
              128.0608061,
              36.6545712
            ],
            [
              128.0606425,
              36.6544033
            ],
            [
              128.0599692,
              36.6546486
            ],
            [
              128.0600524,
              36.6547928
            ]
          ]
        ]
      }
    },
    {
      "type": "Feature",
      "properties": {
        "id": "art-12",
        "base": 7.3,
        "height": 8.2,
        "color": "#f7f2de",
        "part": "eco roof edge",
        "source": "photo-inspired procedural illustration",
        "survey_verified": false,
        "usage": "visual_only"
      },
      "geometry": {
        "type": "Polygon",
        "coordinates": [
          [
            [
              128.0600482804,
              36.654795137
            ],
            [
              128.0601625694,
              36.6547710815
            ],
            [
              128.0608132859,
              36.654570213
            ],
            [
              128.0606472319,
              36.6543997945
            ],
            [
              128.0599638324,
              36.654648774
            ],
            [
              128.0600482804,
              36.654795137
            ]
          ]
        ]
      }
    },
    {
      "type": "Feature",
      "properties": {
        "id": "art-13",
        "base": 8.2,
        "height": 8.45,
        "color": "#83a857",
        "part": "eco roof",
        "source": "photo-inspired procedural illustration",
        "survey_verified": false,
        "usage": "visual_only"
      },
      "geometry": {
        "type": "Polygon",
        "coordinates": [
          [
            [
              128.0601100744,
              36.654760082
            ],
            [
              128.0601990284,
              36.654741359
            ],
            [
              128.0607054974,
              36.654585018
            ],
            [
              128.0605762534,
              36.654452377
            ],
            [
              128.06004434640002,
              36.654646164
            ],
            [
              128.0601100744,
              36.654760082
            ]
          ]
        ]
      }
    },
    {
      "type": "Feature",
      "properties": {
        "id": "art-14",
        "base": 0,
        "height": 8,
        "color": "#d7dfce",
        "part": "eco walls",
        "source": "photo-inspired procedural illustration",
        "survey_verified": false,
        "usage": "visual_only"
      },
      "geometry": {
        "type": "Polygon",
        "coordinates": [
          [
            [
              128.0592987,
              36.655249
            ],
            [
              128.0597573,
              36.6550446
            ],
            [
              128.0595991,
              36.6547842
            ],
            [
              128.0591994,
              36.6549391
            ],
            [
              128.0592987,
              36.655249
            ]
          ]
        ]
      }
    },
    {
      "type": "Feature",
      "properties": {
        "id": "art-15",
        "base": 7.3,
        "height": 8.2,
        "color": "#f7f2de",
        "part": "eco roof edge",
        "source": "photo-inspired procedural illustration",
        "survey_verified": false,
        "usage": "visual_only"
      },
      "geometry": {
        "type": "Polygon",
        "coordinates": [
          [
            [
              128.05929622612499,
              36.655252671625
            ],
            [
              128.059761705125,
              36.655045205624994
            ],
            [
              128.059601132125,
              36.654780899625
            ],
            [
              128.059195436625,
              36.654938123125
            ],
            [
              128.05929622612499,
              36.655252671625
            ]
          ]
        ]
      }
    },
    {
      "type": "Feature",
      "properties": {
        "id": "art-16",
        "base": 8.2,
        "height": 8.45,
        "color": "#788f97",
        "part": "eco roof",
        "source": "photo-inspired procedural illustration",
        "survey_verified": false,
        "usage": "visual_only"
      },
      "geometry": {
        "type": "Polygon",
        "coordinates": [
          [
            [
              128.05933333425,
              36.655197597249995
            ],
            [
              128.05969562825,
              36.65503612125
            ],
            [
              128.05957065025,
              36.65483040525
            ],
            [
              128.05925488725,
              36.65495277625
            ],
            [
              128.05933333425,
              36.655197597249995
            ]
          ]
        ]
      }
    },
    {
      "type": "Feature",
      "properties": {
        "id": "art-17",
        "base": 8.5,
        "height": 8.65,
        "color": "#486d82",
        "part": "solar panels",
        "source": "photo-inspired procedural illustration",
        "survey_verified": false,
        "usage": "visual_only"
      },
      "geometry": {
        "type": "Polygon",
        "coordinates": [
          [
            [
              128.0593305153803,
              36.65494576913418
            ],
            [
              128.05937302097317,
              36.65494576913418
            ],
            [
              128.05937302097317,
              36.65506268086582
            ],
            [
              128.0593305153803,
              36.65506268086582
            ],
            [
              128.0593305153803,
              36.65494576913418
            ]
          ]
        ]
      }
    },
    {
      "type": "Feature",
      "properties": {
        "id": "art-18",
        "base": 8.5,
        "height": 8.65,
        "color": "#486d82",
        "part": "solar panels",
        "source": "photo-inspired procedural illustration",
        "survey_verified": false,
        "usage": "visual_only"
      },
      "geometry": {
        "type": "Polygon",
        "coordinates": [
          [
            [
              128.0593976294743,
              36.65494576913418
            ],
            [
              128.05944013506712,
              36.65494576913418
            ],
            [
              128.05944013506712,
              36.65506268086582
            ],
            [
              128.0593976294743,
              36.65506268086582
            ],
            [
              128.0593976294743,
              36.65494576913418
            ]
          ]
        ]
      }
    },
    {
      "type": "Feature",
      "properties": {
        "id": "art-19",
        "base": 8.5,
        "height": 8.65,
        "color": "#486d82",
        "part": "solar panels",
        "source": "photo-inspired procedural illustration",
        "survey_verified": false,
        "usage": "visual_only"
      },
      "geometry": {
        "type": "Polygon",
        "coordinates": [
          [
            [
              128.05946474356824,
              36.65494576913418
            ],
            [
              128.05950724916107,
              36.65494576913418
            ],
            [
              128.05950724916107,
              36.65506268086582
            ],
            [
              128.05946474356824,
              36.65506268086582
            ],
            [
              128.05946474356824,
              36.65494576913418
            ]
          ]
        ]
      }
    },
    {
      "type": "Feature",
      "properties": {
        "id": "art-20",
        "base": 8.5,
        "height": 8.65,
        "color": "#486d82",
        "part": "solar panels",
        "source": "photo-inspired procedural illustration",
        "survey_verified": false,
        "usage": "visual_only"
      },
      "geometry": {
        "type": "Polygon",
        "coordinates": [
          [
            [
              128.0595318576622,
              36.65494576913418
            ],
            [
              128.05957436325505,
              36.65494576913418
            ],
            [
              128.05957436325505,
              36.65506268086582
            ],
            [
              128.0595318576622,
              36.65506268086582
            ],
            [
              128.0595318576622,
              36.65494576913418
            ]
          ]
        ]
      }
    },
    {
      "type": "Feature",
      "properties": {
        "id": "art-21",
        "base": 0,
        "height": 3.4,
        "color": "#f1e6be",
        "part": "ticket office",
        "source": "photo-inspired procedural illustration",
        "survey_verified": false,
        "usage": "visual_only"
      },
      "geometry": {
        "type": "Polygon",
        "coordinates": [
          [
            [
              128.06134669882877,
              36.65261420480093
            ],
            [
              128.06145855565202,
              36.65261420480093
            ],
            [
              128.06145855565202,
              36.65266816406169
            ],
            [
              128.06134669882877,
              36.65266816406169
            ],
            [
              128.06134669882877,
              36.65261420480093
            ]
          ]
        ]
      }
    },
    {
      "type": "Feature",
      "properties": {
        "id": "art-22",
        "base": 5.4,
        "height": 6,
        "color": "#dbe8a4",
        "part": "gate canopy",
        "source": "photo-inspired procedural illustration",
        "survey_verified": false,
        "usage": "visual_only"
      },
      "geometry": {
        "type": "Polygon",
        "coordinates": [
          [
            [
              128.061251620529,
              36.65259621838068
            ],
            [
              128.0615536339518,
              36.65259621838068
            ],
            [
              128.0615536339518,
              36.65268615048194
            ],
            [
              128.061251620529,
              36.65268615048194
            ],
            [
              128.061251620529,
              36.65259621838068
            ]
          ]
        ]
      }
    },
    {
      "type": "Feature",
      "properties": {
        "id": "art-23",
        "base": 0,
        "height": 5.5,
        "color": "#f3c65e",
        "part": "gate colored column",
        "source": "photo-inspired procedural illustration",
        "survey_verified": false,
        "usage": "visual_only"
      },
      "geometry": {
        "type": "Polygon",
        "coordinates": [
          [
            [
              128.06127678831422,
              36.65262094970853
            ],
            [
              128.0612823811554,
              36.65262094970853
            ],
            [
              128.0612823811554,
              36.652625446313586
            ],
            [
              128.06127678831422,
              36.652625446313586
            ],
            [
              128.06127678831422,
              36.65262094970853
            ]
          ]
        ]
      }
    },
    {
      "type": "Feature",
      "properties": {
        "id": "art-24",
        "base": 0,
        "height": 5.5,
        "color": "#88a768",
        "part": "gate colored column",
        "source": "photo-inspired procedural illustration",
        "survey_verified": false,
        "usage": "visual_only"
      },
      "geometry": {
        "type": "Polygon",
        "coordinates": [
          [
            [
              128.06131202321356,
              36.65262094970853
            ],
            [
              128.0613176160547,
              36.65262094970853
            ],
            [
              128.0613176160547,
              36.652625446313586
            ],
            [
              128.06131202321356,
              36.652625446313586
            ],
            [
              128.06131202321356,
              36.65262094970853
            ]
          ]
        ]
      }
    },
    {
      "type": "Feature",
      "properties": {
        "id": "art-25",
        "base": 0,
        "height": 5.5,
        "color": "#e8964c",
        "part": "gate colored column",
        "source": "photo-inspired procedural illustration",
        "survey_verified": false,
        "usage": "visual_only"
      },
      "geometry": {
        "type": "Polygon",
        "coordinates": [
          [
            [
              128.06134725811287,
              36.65262094970853
            ],
            [
              128.06135285095405,
              36.65262094970853
            ],
            [
              128.06135285095405,
              36.652625446313586
            ],
            [
              128.06134725811287,
              36.652625446313586
            ],
            [
              128.06134725811287,
              36.65262094970853
            ]
          ]
        ]
      }
    },
    {
      "type": "Feature",
      "properties": {
        "id": "art-26",
        "base": 0,
        "height": 5.5,
        "color": "#528e82",
        "part": "gate colored column",
        "source": "photo-inspired procedural illustration",
        "survey_verified": false,
        "usage": "visual_only"
      },
      "geometry": {
        "type": "Polygon",
        "coordinates": [
          [
            [
              128.06138249301222,
              36.65262094970853
            ],
            [
              128.06138808585337,
              36.65262094970853
            ],
            [
              128.06138808585337,
              36.652625446313586
            ],
            [
              128.06138249301222,
              36.652625446313586
            ],
            [
              128.06138249301222,
              36.65262094970853
            ]
          ]
        ]
      }
    },
    {
      "type": "Feature",
      "properties": {
        "id": "art-27",
        "base": 0,
        "height": 5.5,
        "color": "#f3c65e",
        "part": "gate colored column",
        "source": "photo-inspired procedural illustration",
        "survey_verified": false,
        "usage": "visual_only"
      },
      "geometry": {
        "type": "Polygon",
        "coordinates": [
          [
            [
              128.06141772791153,
              36.65262094970853
            ],
            [
              128.0614233207527,
              36.65262094970853
            ],
            [
              128.0614233207527,
              36.652625446313586
            ],
            [
              128.06141772791153,
              36.652625446313586
            ],
            [
              128.06141772791153,
              36.65262094970853
            ]
          ]
        ]
      }
    },
    {
      "type": "Feature",
      "properties": {
        "id": "art-28",
        "base": 0,
        "height": 5.5,
        "color": "#88a768",
        "part": "gate colored column",
        "source": "photo-inspired procedural illustration",
        "survey_verified": false,
        "usage": "visual_only"
      },
      "geometry": {
        "type": "Polygon",
        "coordinates": [
          [
            [
              128.06145296281088,
              36.65262094970853
            ],
            [
              128.06145855565202,
              36.65262094970853
            ],
            [
              128.06145855565202,
              36.652625446313586
            ],
            [
              128.06145296281088,
              36.652625446313586
            ],
            [
              128.06145296281088,
              36.65262094970853
            ]
          ]
        ]
      }
    },
    {
      "type": "Feature",
      "properties": {
        "id": "art-29",
        "base": 0,
        "height": 5.5,
        "color": "#e8964c",
        "part": "gate colored column",
        "source": "photo-inspired procedural illustration",
        "survey_verified": false,
        "usage": "visual_only"
      },
      "geometry": {
        "type": "Polygon",
        "coordinates": [
          [
            [
              128.0614881977102,
              36.65262094970853
            ],
            [
              128.06149379055137,
              36.65262094970853
            ],
            [
              128.06149379055137,
              36.652625446313586
            ],
            [
              128.0614881977102,
              36.652625446313586
            ],
            [
              128.0614881977102,
              36.65262094970853
            ]
          ]
        ]
      }
    },
    {
      "type": "Feature",
      "properties": {
        "id": "art-30",
        "base": 0,
        "height": 5.5,
        "color": "#528e82",
        "part": "gate colored column",
        "source": "photo-inspired procedural illustration",
        "survey_verified": false,
        "usage": "visual_only"
      },
      "geometry": {
        "type": "Polygon",
        "coordinates": [
          [
            [
              128.06152343260953,
              36.65262094970853
            ],
            [
              128.06152902545068,
              36.65262094970853
            ],
            [
              128.06152902545068,
              36.652625446313586
            ],
            [
              128.06152343260953,
              36.652625446313586
            ],
            [
              128.06152343260953,
              36.65262094970853
            ]
          ]
        ]
      }
    }
  ]
}